{"spkid": "50536616", "covariance": {"epoch": "2455409.5", "labels": ["e", "q", "tp", "node", "peri", "i"], "data": [["3.598877979654213E-12", "-3.533121272612596E-12", "2.854574352790912E-10", "4.597746905947019E-11", "-1.794033204589767E-10", "2.741332664098283E-10"], ["-3.533121272612596E-12", "3.475810385281452E-12", "-2.785530175209209E-10", "-4.49260415419145E-11", "1.785101917169018E-10", "-2.683835535592451E-10"], ["2.854574352790912E-10", "-2.785530175209209E-10", "2.329478618278423E-8", "4.143274810622434E-9", "-1.380148928480962E-8", "2.186873594548386E-8"], ["4.597746905947019E-11", "-4.49260415419145E-11", "4.143274810622434E-9", "2.052441393346753E-9", "-3.065999850285968E-9", "4.166810162168691E-9"], ["-1.794033204589767E-10", "1.785101917169018E-10", "-1.380148928480962E-8", "-3.065999850285968E-9", "1.036140198959346E-8", "-1.408949214789667E-8"], ["2.741332664098283E-10", "-2.683835535592451E-10", "2.186873594548386E-8", "4.166810162168691E-9", "-1.408949214789667E-8", "2.222583796633488E-8"]], "elements": [{"label": "e", "title": "eccentricity", "value": ".1837212920425983", "units": null, "name": "e", "sigma": 1.89707089473594e-06}, {"label": "q", "sigma": 1.8643525378215e-06, "name": "q", "title": "perihelion distance", "value": ".8278480701773047", "units": "au"}, {"sigma": 0.000152626295843096, "name": "tp", "value": "2455299.326491384337", "title": "time of perihelion passage", "units": "TDB", "label": "tp"}, {"sigma": 4.53038783477392e-05, "name": "om", "value": "277.2651240966301", "title": "longitude of the ascending node", "units": "deg", "label": "node"}, {"label": "peri", "sigma": 0.000101790972043661, "name": "w", "value": "262.6661145220252", "title": "argument of perihelion", "units": "deg"}, {"label": "i", "name": "i", "sigma": 0.000149083325581149, "units": "deg", "title": "inclination", "value": "14.76765887286002"}]}, "elements": [{"label": "e", "units": null, "value": ".1836881526874712", "title": "eccentricity", "name": "e", "sigma": "1.9149E-6"}, {"label": "a", "units": "au", "value": "1.014420614629529", "title": "semi-major axis", "sigma": "1.3458E-7", "name": "a"}, {"label": "q", "sigma": "1.8803E-6", "name": "q", "value": ".8280835658801421", "title": "perihelion distance", "units": "au"}, {"units": "deg", "title": "inclination; angle with respect to x-y ecliptic plane", "value": "14.76435217752016", "name": "i", "sigma": ".00014897", "label": "i"}, {"name": "om", "sigma": "4.5559E-5", "units": "deg", "title": "longitude of the ascending node", "value": "277.1718974747331", "label": "node"}, {"label": "peri", "units": "deg", "title": "argument of perihelion", "value": "262.9640723870166", "sigma": ".00010461", "name": "w"}, {"title": "mean anomaly", "value": "291.4841039660907", "units": "deg", "name": "ma", "sigma": ".0011707", "label": "M"}, {"sigma": ".0012276", "name": "tp", "value": "2461271.525511013881", "title": "time of perihelion passage", "units": "TDB", "label": "tp"}, {"label": "period", "name": "per", "sigma": "7.4264E-5", "value": "373.1861574479396", "title": "sidereal orbital period", "units": "d"}, {"sigma": "1.9197E-7", "name": "n", "units": "deg/d", "title": "mean motion", "value": ".96466600600056", "label": "n"}, {"label": "Q", "sigma": "1.593E-7", "name": "ad", "value": "1.200757663378917", "title": "aphelion distance", "units": "au"}], "epoch": "2461200.5"}